ONEWEB-0461             
1 51649U 22012AD  25346.19830639 -.00000183  00000+0 -50463-3 0  9995
2 51649  87.9121  43.0261 0001630 100.7010 259.4305 13.17648428189268
ONEWEB-0463             
1 51650U 22012AE  25346.17974504  .00000002  00000+0 -27825-4 0  9991
2 51650  87.9104  43.0736 0001747 101.8809 258.2518 13.17649307189041
ONEWEB-0464             
1 51651U 22012AF  25346.26246893 -.00000227  00000+0 -68654-3 0  9999
2 51651  87.8800  73.5513 0001812  96.7108 263.4225 13.10370356184846
ONEWEB-0468             
1 51652U 22012AG  25346.26910408 -.00000539  00000+0 -15791-2 0  9999
2 51652  87.8805  73.5428 0001868 103.1552 256.9784 13.10370281184826
ONEWEB-0473             
1 51653U 22012AH  25346.25418042  .00000215  00000+0  57907-3 0  9991
2 51653  87.8804  73.5490 0001797 106.2237 253.9088 13.10369838184820
ONEWEB-0474             
1 51654U 22012AJ  25346.24588839  .00000431  00000+0  11994-2 0  9998
2 51654  87.8812  73.5168 0001982 101.3216 258.8134 13.10370370184819
ONEWEB-0475             
1 51655U 22012AK  25346.19155446  .00000304  00000+0  74854-3 0  9991
2 51655  87.9113  43.0608 0002978 107.7389 252.4068 13.17647794189065
ONEWEB-0490             
1 54113U 22138A   25346.24619529  .00000061  00000+0  12099-3 0  9998
2 54113  87.9209 342.1529 0001944  84.2916 275.8438 13.19724847152174
